NORAD_CAT_ID,OBJECT_NAME,OBJECT_TYPE,EPOCH,MEAN_MOTION,ECCENTRICITY,INCLINATION,RA_OF_ASC_NODE,ARG_OF_PERICENTER,MEAN_ANOMALY,BSTAR,MEAN_MOTION_DOT,MEAN_MOTION_DDOT,TLE_LINE0,TLE_LINE1,TLE_LINE2,SEMIMAJOR_AXIS,PERIOD,APOGEE,PERIGEE,DECAYED
52650.0,STARLINK-3891,PAYLOAD,2022-08-21 22:00:00,15.57422584,0.0001428,53.2176,309.6556,52.3804,168.3101,-0.015702,-0.01066083,0.0,0 STARLINK-3891,1 52650U 22052BE  22233.91667824 -.01066083  00000-0 -15702-1 0  9996,2 52650  53.2176 309.6556 0001428  52.3804 168.3101 15.57422584  1302,6773.257,92.46,396.089,394.154,0.0
52650.0,STARLINK-3891,PAYLOAD,2022-08-22 12:00:00,15.56090011,0.000151,53.2175,306.8413,49.4497,202.2718,-0.016406,-0.01060143,0.0,0 STARLINK-3891,1 52650U 22052BE  22234.50001157 -.01060143  00000-0 -16406-1 0  9996,2 52650  53.2175 306.8413 0001510  49.4497 202.2718 15.56090011 16065,6777.123000000001,92.54,400.011,397.965,0.0
52650.0,STARLINK-3891,PAYLOAD,2022-08-22 22:00:00,15.55141456,0.0001654,53.2175,304.8327,33.3298,33.1312,-0.017013,-0.01061191,0.0,0 STARLINK-3891,1 52650U 22052BE  22234.91667824 -.01061191  00000-0 -17013-1 0  9999,2 52650  53.2175 304.8327 0001654  33.3298  33.1312 15.55141456  1308,6779.878000000002,92.596,402.865,400.622,0.0
52650.0,STARLINK-3891,PAYLOAD,2022-08-23 04:00:00,15.54570394,0.0001515,53.2175,303.6288,37.7118,348.9089,-0.01733,-0.01058583,0.0,0 STARLINK-3891,1 52650U 22052BE  22235.16667824 -.01058583  00000-0 -17330-1 0  9990,2 52650  53.2175 303.6288 0001515  37.7118 348.9089 15.54570394 16171,6781.5390000000025,92.63,404.431,402.376,0.0
52650.0,STARLINK-3891,PAYLOAD,2022-08-23 14:00:01,15.53620328,0.0001671,53.2175,301.6283,44.0373,155.0395,-0.017908,-0.01056581,0.0,0 STARLINK-3891,1 52650U 22052BE  22235.58334491 -.01056581  00000-0 -17908-1 0  9994,2 52650  53.2175 301.6283 0001671  44.0373 155.0395 15.53620328  1309,6784.303000000001,92.687,407.302,405.034,0.0
52650.0,STARLINK-3891,PAYLOAD,2022-08-23 20:00:01,15.53053157,0.000167,53.2174,300.4267,41.0106,116.8563,-0.018368,-0.0106104,0.0,0 STARLINK-3891,1 52650U 22052BE  22235.83334491 -.01061040  00000-0 -18368-1 0  9999,2 52650  53.2174 300.4267 0001670  41.0106 116.8563 15.53053157 16271,6785.955,92.721,408.953,406.687,0.0
52650.0,STARLINK-3891,PAYLOAD,2022-08-23 22:00:01,15.5286506,0.0001483,53.2175,300.0264,45.2239,218.8565,-0.018552,-0.01063993,0.0,0 STARLINK-3891,1 52650U 22052BE  22235.91668981 -.01063993  00000-0 -18552-1 0  9996,2 52650  53.2175 300.0264 0001483  45.2239 218.8565 15.52865060  1306,6786.503000000002,92.732,409.374,407.361,0.0
52650.0,STARLINK-3891,PAYLOAD,2022-08-24 12:00:00,15.51534116,0.0001399,53.2174,297.2316,52.4005,233.0624,-0.019396,-0.01060342,0.0,0 STARLINK-3891,1 52650U 22052BE  22236.50001157 -.01060342  00000-0 -19396-1 0  9990,2 52650  53.2174 297.2316 0001399  52.4005 233.0624 15.51534116 16379,6790.3830000000025,92.811,413.198,411.298,0.0
52650.0,STARLINK-3891,PAYLOAD,2022-08-24 14:00:01,15.5134305,0.0001402,53.2175,296.833,43.75,347.4062,-0.019496,-0.01058662,0.0,0 STARLINK-3891,1 52650U 22052BE  22236.58334491 -.01058662  00000-0 -19496-1 0  9991,2 52650  53.2175 296.8330 0001402  43.7500 347.4062 15.51343050  1307,6790.941,92.823,413.758,411.854,0.0
52650.0,STARLINK-3891,PAYLOAD,2022-08-24 22:00:00,15.50583167,0.0001616,53.2176,295.2364,37.2173,56.1413,-0.020017,-0.01057837,0.0,0 STARLINK-3891,1 52650U 22052BE  22236.91667824 -.01057837  00000-0 -20017-1 0  9991,2 52650  53.2176 295.2364 0001616  37.2173  56.1413 15.50583167  1307,6793.159000000002,92.868,416.122,413.927,0.0
52650.0,STARLINK-3891,PAYLOAD,2022-08-25 04:00:00,15.5001314,0.0001629999999999,53.2176,294.041,35.8929,13.5179,-0.020402,-0.01056571,0.0,0 STARLINK-3891,1 52650U 22052BE  22237.16667824 -.01056571  00000-0 -20402-1 0  9991,2 52650  53.2176 294.0410 0001630  35.8929  13.5179 15.50013140 16485,6794.825,92.902,417.797,415.582,0.0
52650.0,STARLINK-3891,PAYLOAD,2022-08-25 14:00:01,15.49066473,0.0001733,53.2171,292.0528,35.6353,179.3865,-0.021186,-0.01060511,0.0,0 STARLINK-3891,1 52650U 22052BE  22237.58334491 -.01060511  00000-0 -21186-1 0  9997,2 52650  53.2171 292.0528 0001733  35.6353 179.3865 15.49066473  1304,6797.593000000003,92.959,420.636,418.28,0.0
52650.0,STARLINK-3891,PAYLOAD,2022-08-25 18:00:00,15.48684909,0.0001754,53.217,291.2579,30.4549,34.4132,-0.021414,-0.0105782999999999,0.0,0 STARLINK-3891,1 52650U 22052BE  22237.75001157 -.01057830  00000-0 -21414-1 0  9990,2 52650  53.2170 291.2579 0001754  30.4549  34.4132 15.48684909 16575,6798.709,92.982,421.767,419.382,0.0
52650.0,STARLINK-3891,PAYLOAD,2022-08-25 22:00:00,15.48306036,0.0001598,53.2177,290.4629,39.3366,235.1491,-0.021738,-0.01059377,0.0,0 STARLINK-3891,1 52650U 22052BE  22237.91667824 -.01059377  00000-0 -21738-1 0  9994,2 52650  53.2177 290.4629 0001598  39.3366 235.1491 15.48306036  1305,6799.818,93.005,422.77,420.597,0.0
52650.0,STARLINK-3891,PAYLOAD,2022-08-26 12:00:00,15.46976571,0.0001541999999999,53.2176,287.6876,44.7718,241.5774,-0.022747,-0.01058177,0.0,0 STARLINK-3891,1 52650U 22052BE  22238.50001157 -.01058177  00000-0 -22747-1 0  9999,2 52650  53.2176 287.6876 0001542  44.7718 241.5774 15.46976571 16683,6803.7130000000025,93.085,426.628,424.529,0.0
52650.0,STARLINK-3891,PAYLOAD,2022-08-26 14:00:01,15.4678452,0.0001567,53.2175,287.2915,36.9733,353.7651,-0.02282,-0.01054831,0.0,0 STARLINK-3891,1 52650U 22052BE  22238.58335648 -.01054831  00000-0 -22820-1 0  9997,2 52650  53.2175 287.2915 0001567  36.9733 353.7651 15.46784520  1303,6804.276999999999,93.096,427.208,425.075,0.0
52650.0,STARLINK-3891,PAYLOAD,2022-08-26 22:00:00,15.46024976,0.0001786999999999,53.2176,285.7058,31.5978,55.8027,-0.023433,-0.01055004,0.0,0 STARLINK-3891,1 52650U 22052BE  22238.91667824 -.01055004  00000-0 -23433-1 0  9992,2 52650  53.2176 285.7058 0001787  31.5978  55.8027 15.46024976  1300,6806.505,93.142,429.586,427.154,0.0
52650.0,STARLINK-3891,PAYLOAD,2022-08-27 14:00:01,15.44502948,0.000157,53.2174,282.5454,49.3033,148.8092,-0.02454,-0.01048926,0.0,0 STARLINK-3891,1 52650U 22052BE  22239.58334491 -.01048926  00000-0 -24540-1 0  9992,2 52650  53.2174 282.5454 0001570  49.3033 148.8092 15.44502948  1305,6810.976,93.234,433.91,431.772,0.0
52650.0,STARLINK-3891,PAYLOAD,2022-08-27 20:00:01,15.43935973,0.0001808,53.2173,281.3596,37.6438,111.0453,-0.025162,-0.01054372,0.0,0 STARLINK-3891,1 52650U 22052BE  22239.83334491 -.01054372  00000-0 -25162-1 0  9993,2 52650  53.2173 281.3596 0001808  37.6438 111.0453 15.43935973 16891,6812.643,93.268,435.74,433.277,0.0
52650.0,STARLINK-3891,PAYLOAD,2022-08-27 22:00:00,15.43746524,0.0001624,53.2175,280.965,41.3533,210.7466,-0.025319,-0.01054089,0.0,0 STARLINK-3891,1 52650U 22052BE  22239.91667824 -.01054089  00000-0 -25319-1 0  9990,2 52650  53.2175 280.9650 0001624  41.3533 210.7466 15.43746524  1306,6813.201,93.28,436.172,433.959,0.0
52650.0,STARLINK-3891,PAYLOAD,2022-08-28 12:00:00,15.42416741,0.0001578,53.2174,278.2089,49.1597,205.2209,-0.026448,-0.01067334,0.0,0 STARLINK-3891,1 52650U 22052BE  22240.50001157 -.01067334  00000-0 -26448-1 0  9999,2 52650  53.2174 278.2089 0001578  49.1597 205.2209 15.42416741 16994,6817.116,93.36,440.057,437.905,0.0
52650.0,STARLINK-3891,PAYLOAD,2022-08-28 14:00:01,15.42227802,0.0001455,53.2173,277.8155,40.7801,316.5547,-0.026645,-0.01068337,0.0,0 STARLINK-3891,1 52650U 22052BE  22240.58334491 -.01068337  00000-0 -26645-1 0  9990,2 52650  53.2173 277.8155 0001455  40.7801 316.5547 15.42227802  1309,6817.6730000000025,93.371,440.53,438.546,0.0
52650.0,STARLINK-3891,PAYLOAD,2022-08-28 22:00:00,15.41467447,0.0001656,53.2174,276.2405,33.3749,15.2112,-0.0273279999999999,-0.01068136,0.0,0 STARLINK-3891,1 52650U 22052BE  22240.91667824 -.01068136  00000-0 -27328-1 0  9992,2 52650  53.2174 276.2405 0001656  33.3749  15.2112 15.41467447  1304,6819.915,93.417,442.909,440.65,0.0
52650.0,STARLINK-3891,PAYLOAD,2022-08-29 04:00:00,15.40900289,0.000161,53.2176,275.0622,36.8025,319.6201,-0.027938,-0.01071172,0.0,0 STARLINK-3891,1 52650U 22052BE  22241.16667824 -.01071172  00000-0 -27938-1 0  9991,2 52650  53.2176 275.0622 0001610  36.8025 319.6201 15.40900289 17097,6821.5880000000025,93.452,444.551,442.355,0.0
52650.0,STARLINK-3891,PAYLOAD,2022-08-29 14:00:01,15.39947684,0.0001617,53.2173,273.1017,45.5205,102.8249,-0.028675,-0.0106559,0.0,0 STARLINK-3891,1 52650U 22052BE  22241.58334491 -.01065590  00000-0 -28675-1 0  9994,2 52650  53.2173 273.1017 0001617  45.5205 102.8249 15.39947684  1304,6824.401,93.51,447.369,445.162,0.0
52650.0,STARLINK-3891,PAYLOAD,2022-08-29 20:00:01,15.39379372,0.0001548,53.2175,271.9243,43.1387,51.6764,-0.029306,-0.01068463,0.0,0 STARLINK-3891,1 52650U 22052BE  22241.83334491 -.01068463  00000-0 -29306-1 0  9996,2 52650  53.2175 271.9243 0001548  43.1387  51.6764 15.39379372 17203,6826.08,93.544,449.002,446.889,0.0
52650.0,STARLINK-3891,PAYLOAD,2022-08-29 22:00:00,15.39188443,0.0001557,53.2174,271.5322,49.3289,147.5289,-0.029424,-0.01066216,0.0,0 STARLINK-3891,1 52650U 22052BE  22241.91667824 -.01066216  00000-0 -29424-1 0  9999,2 52650  53.2174 271.5322 0001557  49.3289 147.5289 15.39188443  1303,6826.645,93.556,449.573,447.447,0.0
52650.0,STARLINK-3891,PAYLOAD,2022-08-30 12:00:00,15.37857072,0.000156,53.2176,268.7953,52.9839,136.5721,-0.030618,-0.01062311,0.0,0 STARLINK-3891,1 52650U 22052BE  22242.50001157 -.01062311  00000-0 -30618-1 0  9995,2 52650  53.2176 268.7953 0001560  52.9839 136.5721 15.37857072 17303,6830.584,93.637,453.515,451.384,0.0
52650.0,STARLINK-3891,PAYLOAD,2022-08-30 14:00:01,15.37698864,0.0001519,53.2163,268.4031,41.4209,249.704,-0.0320509999999999,-0.01102643,0.0,0 STARLINK-3891,1 52650U 22052BE  22242.58334491 -.01102643  00000-0 -32051-1 0  9999,2 52650  53.2163 268.4031 0001519  41.4209 249.7040 15.37698864  1307,6831.053000000001,93.646,453.955,451.88,0.0
